GOES 1 (SMS-C)          
1 08366U 75100A   26063.44350074 -.00000001  00000+0  00000+0 0  9990
2 08366   4.8745 278.7497 0005415 359.8682 282.5793  1.00237439184012
GOES 2                  
1 10061U 77048A   26062.96622332 -.00000274  00000+0  00000+0 0  9995
2 10061   6.6702 294.2228 0013890  47.6111 284.7400  0.99397546 45221
GOES 3                  
1 10953U 78062A   26063.46572591 -.00000282  00000+0  00000+0 0  9998
2 10953   7.1387 300.0480 0002800 355.1030 192.9755  0.99365953127498
GOES 4                  
1 11964U 80074A   26063.07558064 -.00000245  00000+0  00000+0 0  9992
2 11964   8.2129 303.7336 0032096 103.0312  91.1211  0.99231191126391
GOES 5                  
1 12472U 81049A   26063.13945427 -.00000204  00000+0  00000+0 0  9995
2 12472   9.5464 316.3440 0004660 336.9727 190.1982  1.00211544121798
GOES 6                  
1 14050U 83041A   26062.32956686 -.00000082  00000+0  00000+0 0  9996
2 14050  10.3592 321.9070 0002360 306.4375 262.1209  1.00217666214955
GOES 7                  
1 17561U 87022A   26062.40572343  .00000068  00000+0  00000+0 0  9995
2 17561  13.0217 338.3812 0003943  14.6167 182.3930  0.99894387125908
GOES 8                  
1 23051U 94022A   26063.11926086 -.00000247  00000+0  00000+0 0  9990
2 23051  14.3402  14.4723 0004991  14.2509 345.4739  0.98908183123087
GOES 9                  
1 23581U 95025A   26063.30044841 -.00000086  00000+0  00000+0 0  9994
2 23581  13.8697  15.3139 0003639 210.9793 324.3309  0.98798677111726
GOES 10                 
1 24786U 97019A   26063.49839797 -.00000085  00000+0  00000+0 0  9998
2 24786  13.0041  21.8467 0031101 239.2238 176.2730  0.99122187105035
GOES 11                 
1 26352U 00022A   26062.92834979 -.00000124  00000+0  00000+0 0  9995
2 26352  11.5793  47.4483 0005945 254.4886 120.1146  0.99041062 51435
GOES 12                 
1 26871U 01031A   26062.86030993 -.00000211  00000+0  00000+0 0  9996
2 26871  11.9937  38.1473 0008760 295.8491  79.8206  0.99137434 89729
EWS-G1 (GOES 13)        
1 29155U 06018A   26063.13538093  .00000033  00000+0  00000+0 0  9990
2 29155   4.2603  77.7059 0062000 273.0394 110.1723  0.98784863 42217
GOES 14                 
1 35491U 09033A   26063.49975420  .00000117  00000+0  00000+0 0  9991
2 35491   1.4192  84.4208 0002260 298.7445 160.7749  1.00124429  5547
EWS-G2 (GOES 15)        
1 36411U 10008A   26063.50649193  .00000010  00000+0  00000+0 0  9997
2 36411   1.0093  85.1478 0001906  19.7381 303.1848  1.00269460 58589
GOES 16                 
1 41866U 16071A   26063.35669706 -.00000102  00000+0  00000+0 0  9991
2 41866   0.1377  89.7852 0002555 217.0177 239.0082  1.00271047 34054
GOES 17                 
1 43226U 18022A   26063.35114212 -.00000194  00000+0  00000+0 0  9999
2 43226   0.6680  87.5564 0002253 221.5500 249.8945  1.00270359 29370
GOES 18                 
1 51850U 22021A   26063.49975577  .00000085  00000+0  00000+0 0  9997
2 51850   0.0304  75.7612 0000657 323.5131 165.8689  1.00272095  5545
GOES 19                 
1 60133U 24119A   26063.34003264 -.00000260  00000+0  00000+0 0  9996
2 60133   0.0165 326.7117 0000996  53.9137 188.6733  1.00271970  5914
